#dP2025  1  1  0  0  0.00000000     288   u+U IGS20 FIT  WHU
## 2347 259200.00000000   300.00000000 60676     0.000000000
+  119   G02G03G04G05G06G07G08G09G10G11G12G13G14G15G16G17G18
+        G19G20G21G23G24G25G26G27G28G29G30G31G32R01R02R03R04
+        R05R07R08R09R11R12R14R15R16R17R18R19R20R21R22R24E02
+        E03E04E05E07E08E09E10E11E12E13E14E15E18E19E21E24E25
+        E26E27E30E31E33E34E36C01C02C03C04C05C06C07C08C09C10
+        C11C12C13C14C16C19C20C21C22C23C24C25C26C27C28C29C30
+        C32C33C34C35C36C37C38C39C40C41C42C43C44C45J02J03J04
+          0  0  0  0  0  0  0  0  0  0  0  0  0  0  0  0  0
+          0  0  0  0  0  0  0  0  0  0  0  0  0  0  0  0  0
+          0  0  0  0  0  0  0  0  0  0  0  0  0  0  0  0  0
++         2  3  2  3  3  2  3  2  3  3  3  3  3  3  3  4  3
++         3  3  2  3  3  3  3  3  2  3  2  2  2  4  3  3  3
++         3  3  3  2  2  3  3  3  3  2  2  2  3  3  3  2  3
++         3  3  3  2  3  3  2  3  2  3  3  3  3  2  2  2  3
++         3  2  3  2  2  3  3  6  7  6  5  4  4  3  3  4  3
++         4  4  4  3  4  4  4  4  4  3  3  4  3  3  3  4  3
++         4  5  4  3  3  3  4  4  4  4  3  4  4  3  3  3  3
++         0  0  0  0  0  0  0  0  0  0  0  0  0  0  0  0  0
++         0  0  0  0  0  0  0  0  0  0  0  0  0  0  0  0  0
++         0  0  0  0  0  0  0  0  0  0  0  0  0  0  0  0  0
%c M  cc GPS ccc cccc cccc cccc cccc ccccc ccccc ccccc ccccc
%c cc cc ccc ccc cccc cccc cccc cccc ccccc ccccc ccccc ccccc
%f  1.2500000  1.025000000  0.00000000000  0.000000000000000
%f  0.0000000  0.000000000  0.00000000000  0.000000000000000
%i    0    0    0    0      0      0      0      0         0
%i    0    0    0    0      0      0      0      0         0
/* GNSS RESEARCH CENTER, WUHAN UNIVERSITY (WHU), P. R. CHINA
/* POSITION AND NAVIGATION DATA ANALYST (PANDA) SOFTWARE    
/* JING GUO (EMAIL:JINGGUO@WHU.EDU.CN)                      
/* PCV:IGS20_2343 OL/AL:FES2014b NONE     YN ORB:CoN CLK:CoN
*  2025  1  1 23 55  0.00000000
PG02  17139.574649   3420.637449  20575.134227   -277.937218                    
PG03  20247.784433  -8587.052837  14642.911866    637.591826                    
PG04  25265.512262   -295.849308  -8419.165340    505.402257                    
PG05 -14287.764104  -5752.880340 -21820.227785   -197.786680                    
PG06  -5093.456373 -25545.705723   4917.889920    -88.373851                    
PG07  10016.585114 -13867.909653 -19663.183731    -14.065801                    
PG08  25911.024050   6146.177271  -3232.318795    451.980050                    
PG09  20171.156320  -7784.365850 -15567.503886    511.863834                    
PG10  -7123.741165  21766.926002  13384.832074   -259.060678                    
PG11 -12183.406353 -22396.212831  -7510.641960   -752.511598                    
PG12 -20292.341678   4446.958298  16235.086802   -561.978834                    
PG13 -20781.015178 -13919.173635  -9520.369435    692.077638                    
PG14  10502.545045 -22271.394963   9686.172501    571.936854                    
PG15 -26306.875705  -3109.786816  -3321.208053    246.678873                    
PG16  10151.585914  11587.291954 -21980.770846    -88.307959                    
PG17   5040.752912 -14486.507256  22100.348982    493.246454                    
PG18  -8396.888740  16160.391810 -19219.783984   -659.165745                    
PG19  -7001.604536 -16330.066101  19737.908438    581.130708                    
PG20  -6241.363095 -16741.169853 -19607.926634    367.402691                    
PG21  18165.389561  10919.547028  17030.317366     99.583852                    
PG23 -16799.389449  20405.416219   -253.670357    395.529430                    
PG24 -17844.349667  -5811.375379  18473.518719   -468.178077                    
PG25 -19514.398076  16465.336009   6435.029681    497.351157                    
PG26   2237.883971  19630.702140 -17755.009002    -31.585831                    
PG27  19604.985906  12852.969488 -13201.862077    -33.574467                    
PG28   4687.789654  25238.439298   6803.635124   -524.488063                    
PG29 -20537.257518   5862.668616 -15912.340993   -550.847443                    
PG30   1693.139669 -23074.397176 -12650.490497   -248.408365                    
PG31  10266.091227  24104.332148  -3165.407911   -218.777842                    
PG32    789.999235  15502.347453  21800.173299   -549.085519                    
PR01  -5498.369327  -9896.580928 -22855.988411    109.801259                    
PR02 -20740.158572  -3416.736775 -14350.227584    -38.771321                    
PR03 -24731.546379   5499.974954   2694.649137    114.273102                    
PR04 -15161.993731  10600.084572  17581.646776    270.869552                    
PR05   2508.827155  10387.688492  23174.006393    143.110199                    
PR07  24751.484155  -5564.082874  -2894.303135     98.073328                    
PR08  14904.288981 -10838.034163 -17596.441217     -6.220319                    
PR09   9016.658949   8195.857594 -22405.077119    229.647462                    
PR11  11230.552460 -21870.644270  -6761.349780      1.982072                    
PR12   1580.272391 -22121.208164  12631.572904     49.117446                    
PR14 -13451.039488   9955.062598  19262.769240     27.529724                    
PR15 -10775.114332  22582.092190   4988.507682     72.596299                    
PR16  -1710.074727  22183.625340 -12504.901120     32.125578                    
PR17 -14135.742645  -1901.917228 -21143.400388    153.768530                    
PR18  -3059.424622  12267.683056 -22141.692796    179.823395                    
PR19   7569.895144  20242.300194 -13542.660432   -304.051997                    
PR20  17145.197963  17363.248118   7519.755714   -124.075329                    
PR21  14603.871271   3124.135790  20677.932046   -164.601205                    
PR22   2720.823222 -13332.571035  21603.787910    -53.807912                    
PR24 -18137.918436 -16123.710297  -7856.271097    -86.460193                    
PE02 -24052.807782   9535.577304  14346.317912    186.855627                    
PE03 -27952.196904   -614.682656   9725.405727   -163.843343                    
PE04  14104.744927 -12562.336150 -22787.366646   -121.821001                    
PE05 -25044.158695 -13127.552793  -8751.940778   4815.428147                    
PE07   7157.836556  18042.185406  22347.118818   -161.358528                    
PE08 -14796.599863  12049.087813  22627.096848   -393.639106                    
PE09  -7126.238116 -17923.231908 -22458.183243   -722.305706                    
PE10   1003.845695 -27009.748114  12075.943976   -680.406491                    
PE11  -6100.220902 -28889.214695   1983.043096    -79.200943                    
PE12   7176.272967 -21510.400398  19021.022913  -1367.298980                    
PE13   5766.324239  28925.907606  -2544.619407    -28.626303                    
PE14  14628.237469  15707.010085 -13854.814678    538.815850                    
PE15  -7558.202900  20922.263489 -19517.607341   -148.556976                    
PE18 -29084.241862 -11483.519720   4493.350959    951.161266                    
PE19  28364.618519   2056.311377  -8214.219573   1172.608758                    
PE21  15207.586116   8390.869345 -23977.028234   -637.664106                    
PE24   2950.024369 -21963.987687  19612.829552  -1188.646117                    
PE25 -14841.635915  -8812.317132  24042.213624     12.856704                    
PE26  15710.383024  19455.778278  15852.639709   -166.111365                    
PE27  -2863.157087  21922.844631 -19680.400664   -545.268253                    
PE30 -18965.670294  22364.610146  -3986.235990  -1091.691040                    
PE31  19027.237344 -22356.648911   3822.633064    -48.906218                    
PE33  16319.738912   -279.406114  24704.765385     16.438673                    
PE34 -16229.222277    764.602255 -24737.118612   -155.186575                    
PE36 -15433.127995 -19906.553084 -15527.391107   -333.212175                    
PC01 -34264.029392  24549.707464    239.467381   -358.862686                    
PC02   4399.463779  41912.326537   2183.060344    695.215487                    
PC03 -14849.677656  39490.365543    813.794374    773.858324                    
PC04 -39589.689347  14392.866935   -318.877535   -556.844383                    
PC05  21950.974915  36012.333927   1669.985771    174.548459                    
PC06  -2229.133460  35978.039720  22206.338612    616.101575                    
PC07 -13184.439472  26766.994864 -29727.027742    142.396990                    
PC08 -17231.512155  36396.535080  12104.005722    234.196104                    
PC09   2711.709177  39634.258079  15588.999973   -872.452672                    
PC10  -5016.085874  27619.969405 -31151.411643   -369.299700                    
PC11  -7500.084965  13907.556961 -22926.199325    317.401166                    
PC12 -21121.024958  -2480.256716 -18020.470746   -224.615705                    
PC13 -12417.278588  36835.612201  16156.595364     71.913386                    
PC14 -17920.129675  16394.626112  13799.576017   -610.458427                    
PC16  -3386.008689  34921.001965  23978.995667    -24.138118                    
PC19   8714.763610 -17364.954674 -20000.854139   -965.122359                    
PC20  23379.133438 -13464.256953  -7071.409465   -880.527230                    
PC21 -25366.447910    872.352128 -11612.299192   -906.547970                    
PC22 -11979.970670 -11606.339438 -22381.066084    221.098147                    
PC23   7053.931341  22520.255221 -14894.524822   -937.275077                    
PC24 -15341.436382  15720.423801  17170.952620    709.480505                    
PC25  -5213.406176  27357.472469   1560.738762    605.042908                    
PC26 -15846.612485  -4180.535322  22562.474212   -399.742151                    
PC27  23692.562239  10082.902579  10754.390698    417.793548                    
PC28  19068.255851  19945.884512  -4163.538995    326.594503                    
PC29  -1148.243960 -19116.372724  20295.247533    383.387715                    
PC30  16975.079041  -5948.266613  21336.058391     68.735848                    
PC32  25294.854212   -954.739833  11748.618656   -863.350723                    
PC33  -8714.447653  17468.859675  19948.542266   -947.159716                    
PC34 -15595.220337   7572.418178 -21873.351001    598.379814                    
PC35 -19305.189779 -19507.922339   4926.505352    165.196718                    
PC36   5609.230603 -27317.270973  -1235.293102    246.202525                    
PC37  15680.024480   4926.293220 -22552.851494   -900.284913                    
PC38 -20854.290828  36413.113400   3301.206647    200.449463                    
PC39  -6607.781245  30579.601658  28434.400569    -10.704052                    
PC40 -18037.773561  20237.519169 -32359.448598   -112.060873                    
PC41  10971.492535  12173.575710  22637.875413   -883.172236                    
PC42 -24328.389313  12665.957511   5272.542202   -554.979183                    
PC43    201.806507  18839.728301 -20601.947438     97.068035                    
PC44 -24123.926736  -9135.138626 -10619.532849    698.780939                    
PC45  -6474.540616 -22952.161193  14500.507142   -200.649118                    
PJ02 -36422.856454  20795.344277    -68.905698     -0.290207                    
PJ03 -18918.424464  25803.289519 -22729.357137     -0.114262                    
PJ04 -28030.062514  29699.048015  16680.379214     21.272969                    
EOF
